ONEWEB-0137             
1 47283U 20100AB  26004.08681971 -.00000163  00000+0 -48799-3 0  9990
2 47283  87.8927  23.2408 0001788  94.9738 265.1595 13.12443794243044
ONEWEB-0138             
1 47284U 20100AC  26004.06480257 -.00000264  00000+0 -76939-3 0  9992
2 47284  87.8926  23.2540 0001524  89.7624 270.3679 13.12442716243128
ONEWEB-0139             
1 47285U 20100AD  26004.33431480  .00000403  00000+0  10836-2 0  9993
2 47285  87.8923  23.1896 0001675  91.5730 268.5590 13.12443274243238
ONEWEB-0140             
1 47286U 20100AE  26004.28844873 -.00000129  00000+0 -39275-3 0  9998
2 47286  87.8924  23.1861 0001613  89.8986 270.2328 13.12442690243192
ONEWEB-0141             
1 47287U 20100AF  26004.33402774  .00000432  00000+0  11654-2 0  9990
2 47287  87.8922  23.1850 0001817 101.1080 259.0254 13.12446316243189
ONEWEB-0142             
1 47288U 20100AG  26004.09374765  .00000075  00000+0  17336-3 0  9999
2 47288  87.8925  23.2565 0001580 105.7906 254.3397 13.12445035243140
ONEWEB-0143             
1 47289U 20100AH  26004.33248746  .00000276  00000+0  73110-3 0  9991
2 47289  87.8924  23.2049 0001726  92.7160 267.4166 13.12441990243152
ONEWEB-0144             
1 47290U 20100AJ  26004.07495723 -.00000399  00000+0 -11434-2 0  9991
2 47290  87.8925  23.2248 0001337  96.3408 263.7873 13.12444001243047
ONEWEB-0145             
1 47291U 20100AK  26004.12240033  .00000275  00000+0  72876-3 0  9999
2 47291  87.8927  23.2543 0001608  93.3843 266.7469 13.12441834243246
ONEWEB-0146             
1 47292U 20100AL  26004.27149328  .00000436  00000+0  11756-2 0  9999
2 47292  87.8923  23.2105 0001980  84.4587 275.6768 13.12441051243170
ONEWEB-0147             
1 47293U 20100AM  26004.08512266 -.00000188  00000+0 -55812-3 0  9992
2 47293  87.8926  23.2263 0001562  83.3917 276.7389 13.12443810243042
ONEWEB-0115             
1 48042U 21025A   26004.24153145  .00000100  00000+0  24003-3 0  9997
2 48042  87.8991 352.7974 0001746  85.4884 274.6444 13.13469331232073
ONEWEB-0152             
1 48043U 21025B   26004.25508312  .00000359  00000+0  94691-3 0  9995
2 48043  87.8984 352.7996 0001793  83.1293 277.0040 13.13469215232037
ONEWEB-0153             
1 48044U 21025C   26004.23307246 -.00000197  00000+0 -57543-3 0  9994
2 48044  87.8985 352.8107 0001625  87.8042 272.3274 13.13470372232023
ONEWEB-0154             
1 48045U 21025D   26004.22967942 -.00000261  00000+0 -74950-3 0  9992
2 48045  87.8988 352.8076 0001667  83.4295 276.7024 13.13468884231980
ONEWEB-0116             
1 48046U 21025E   26003.96391278  .00000160  00000+0  40288-3 0  9999
2 48046  87.8990 352.8460 0001790  82.3623 277.7709 13.13468525232097
