[{"OBJECT_NAME":"ONEWEB-0137","OBJECT_ID":"2020-100AB","EPOCH":"2026-01-04T02:05:01.222944","MEAN_MOTION":13.12443794,"ECCENTRICITY":0.00017887,"INCLINATION":87.8927,"RA_OF_ASC_NODE":23.2408,"ARG_OF_PERICENTER":94.9738,"MEAN_ANOMALY":265.1595,"EPHEMERIS_TYPE":0,"CLASSIFICATION_TYPE":"U","NORAD_CAT_ID":47283,"ELEMENT_SET_NO":999,"REV_AT_EPOCH":24304,"BSTAR":-0.00048798798,"MEAN_MOTION_DOT":-1.63e-6,"MEAN_MOTION_DDOT":0},{"OBJECT_NAME":"ONEWEB-0138","OBJECT_ID":"2020-100AC","EPOCH":"2026-01-04T01:33:18.942048","MEAN_MOTION":13.12442716,"ECCENTRICITY":0.00015249,"INCLINATION":87.8926,"RA_OF_ASC_NODE":23.254,"ARG_OF_PERICENTER":89.7624,"MEAN_ANOMALY":270.3679,"EPHEMERIS_TYPE":0,"CLASSIFICATION_TYPE":"U","NORAD_CAT_ID":47284,"ELEMENT_SET_NO":999,"REV_AT_EPOCH":24312,"BSTAR":-0.00076939447,"MEAN_MOTION_DOT":-2.64e-6,"MEAN_MOTION_DDOT":0},{"OBJECT_NAME":"ONEWEB-0139","OBJECT_ID":"2020-100AD","EPOCH":"2026-01-04T08:01:24.798720","MEAN_MOTION":13.12443274,"ECCENTRICITY":0.00016751,"INCLINATION":87.8923,"RA_OF_ASC_NODE":23.1896,"ARG_OF_PERICENTER":91.573,"MEAN_ANOMALY":268.559,"EPHEMERIS_TYPE":0,"CLASSIFICATION_TYPE":"U","NORAD_CAT_ID":47285,"ELEMENT_SET_NO":999,"REV_AT_EPOCH":24323,"BSTAR":0.001083551,"MEAN_MOTION_DOT":4.03e-6,"MEAN_MOTION_DDOT":0},{"OBJECT_NAME":"ONEWEB-0140","OBJECT_ID":"2020-100AE","EPOCH":"2026-01-04T06:55:21.970272","MEAN_MOTION":13.1244269,"ECCENTRICITY":0.00016139,"INCLINATION":87.8924,"RA_OF_ASC_NODE":23.1861,"ARG_OF_PERICENTER":89.8986,"MEAN_ANOMALY":270.2328,"EPHEMERIS_TYPE":0,"CLASSIFICATION_TYPE":"U","NORAD_CAT_ID":47286,"ELEMENT_SET_NO":999,"REV_AT_EPOCH":24319,"BSTAR":-0.00039275082,"MEAN_MOTION_DOT":-1.29e-6,"MEAN_MOTION_DDOT":0},{"OBJECT_NAME":"ONEWEB-0141","OBJECT_ID":"2020-100AF","EPOCH":"2026-01-04T08:00:59.996736","MEAN_MOTION":13.12446316,"ECCENTRICITY":0.00018177,"INCLINATION":87.8922,"RA_OF_ASC_NODE":23.185,"ARG_OF_PERICENTER":101.108,"MEAN_ANOMALY":259.0254,"EPHEMERIS_TYPE":0,"CLASSIFICATION_TYPE":"U","NORAD_CAT_ID":47287,"ELEMENT_SET_NO":999,"REV_AT_EPOCH":24318,"BSTAR":0.0011653935,"MEAN_MOTION_DOT":4.32e-6,"MEAN_MOTION_DDOT":0},{"OBJECT_NAME":"ONEWEB-0142","OBJECT_ID":"2020-100AG","EPOCH":"2026-01-04T02:14:59.796960","MEAN_MOTION":13.12445035,"ECCENTRICITY":0.00015801,"INCLINATION":87.8925,"RA_OF_ASC_NODE":23.2565,"ARG_OF_PERICENTER":105.7906,"MEAN_ANOMALY":254.3397,"EPHEMERIS_TYPE":0,"CLASSIFICATION_TYPE":"U","NORAD_CAT_ID":47288,"ELEMENT_SET_NO":999,"REV_AT_EPOCH":24314,"BSTAR":0.00017335878,"MEAN_MOTION_DOT":7.5e-7,"MEAN_MOTION_DDOT":0},{"OBJECT_NAME":"ONEWEB-0143","OBJECT_ID":"2020-100AH","EPOCH":"2026-01-04T07:58:46.916544","MEAN_MOTION":13.1244199,"ECCENTRICITY":0.00017263,"INCLINATION":87.8924,"RA_OF_ASC_NODE":23.2049,"ARG_OF_PERICENTER":92.716,"MEAN_ANOMALY":267.4166,"EPHEMERIS_TYPE":0,"CLASSIFICATION_TYPE":"U","NORAD_CAT_ID":47289,"ELEMENT_SET_NO":999,"REV_AT_EPOCH":24315,"BSTAR":0.00073110326,"MEAN_MOTION_DOT":2.76e-6,"MEAN_MOTION_DDOT":0},{"OBJECT_NAME":"ONEWEB-0144","OBJECT_ID":"2020-100AJ","EPOCH":"2026-01-04T01:47:56.304672","MEAN_MOTION":13.12444001,"ECCENTRICITY":0.00013379,"INCLINATION":87.8925,"RA_OF_ASC_NODE":23.2248,"ARG_OF_PERICENTER":96.3408,"MEAN_ANOMALY":263.7873,"EPHEMERIS_TYPE":0,"CLASSIFICATION_TYPE":"U","NORAD_CAT_ID":47290,"ELEMENT_SET_NO":999,"REV_AT_EPOCH":24304,"BSTAR":-0.0011433804,"MEAN_MOTION_DOT":-3.99e-6,"MEAN_MOTION_DDOT":0},{"OBJECT_NAME":"ONEWEB-0145","OBJECT_ID":"2020-100AK","EPOCH":"2026-01-04T02:56:15.388512","MEAN_MOTION":13.12441834,"ECCENTRICITY":0.00016086,"INCLINATION":87.8927,"RA_OF_ASC_NODE":23.2543,"ARG_OF_PERICENTER":93.3843,"MEAN_ANOMALY":266.7469,"EPHEMERIS_TYPE":0,"CLASSIFICATION_TYPE":"U","NORAD_CAT_ID":47291,"ELEMENT_SET_NO":999,"REV_AT_EPOCH":24324,"BSTAR":0.00072876196,"MEAN_MOTION_DOT":2.75e-6,"MEAN_MOTION_DDOT":0},{"OBJECT_NAME":"ONEWEB-0146","OBJECT_ID":"2020-100AL","EPOCH":"2026-01-04T06:30:57.019392","MEAN_MOTION":13.12441051,"ECCENTRICITY":0.00019803,"INCLINATION":87.8923,"RA_OF_ASC_NODE":23.2105,"ARG_OF_PERICENTER":84.4587,"MEAN_ANOMALY":275.6768,"EPHEMERIS_TYPE":0,"CLASSIFICATION_TYPE":"U","NORAD_CAT_ID":47292,"ELEMENT_SET_NO":999,"REV_AT_EPOCH":24317,"BSTAR":0.0011755836,"MEAN_MOTION_DOT":4.36e-6,"MEAN_MOTION_DDOT":0},{"OBJECT_NAME":"ONEWEB-0147","OBJECT_ID":"2020-100AM","EPOCH":"2026-01-04T02:02:34.597824","MEAN_MOTION":13.1244381,"ECCENTRICITY":0.00015621,"INCLINATION":87.8926,"RA_OF_ASC_NODE":23.2263,"ARG_OF_PERICENTER":83.3917,"MEAN_ANOMALY":276.7389,"EPHEMERIS_TYPE":0,"CLASSIFICATION_TYPE":"U","NORAD_CAT_ID":47293,"ELEMENT_SET_NO":999,"REV_AT_EPOCH":24304,"BSTAR":-0.00055812012,"MEAN_MOTION_DOT":-1.88e-6,"MEAN_MOTION_DDOT":0},{"OBJECT_NAME":"ONEWEB-0115","OBJECT_ID":"2021-025A","EPOCH":"2026-01-04T05:47:48.317280","MEAN_MOTION":13.13469331,"ECCENTRICITY":0.00017462,"INCLINATION":87.8991,"RA_OF_ASC_NODE":352.7974,"ARG_OF_PERICENTER":85.4884,"MEAN_ANOMALY":274.6444,"EPHEMERIS_TYPE":0,"CLASSIFICATION_TYPE":"U","NORAD_CAT_ID":48042,"ELEMENT_SET_NO":999,"REV_AT_EPOCH":23207,"BSTAR":0.00024002758,"MEAN_MOTION_DOT":1.0e-6,"MEAN_MOTION_DDOT":0},{"OBJECT_NAME":"ONEWEB-0152","OBJECT_ID":"2021-025B","EPOCH":"2026-01-04T06:07:19.181568","MEAN_MOTION":13.13469215,"ECCENTRICITY":0.00017938,"INCLINATION":87.8984,"RA_OF_ASC_NODE":352.7996,"ARG_OF_PERICENTER":83.1293,"MEAN_ANOMALY":277.004,"EPHEMERIS_TYPE":0,"CLASSIFICATION_TYPE":"U","NORAD_CAT_ID":48043,"ELEMENT_SET_NO":999,"REV_AT_EPOCH":23203,"BSTAR":0.00094690505,"MEAN_MOTION_DOT":3.59e-6,"MEAN_MOTION_DDOT":0},{"OBJECT_NAME":"ONEWEB-0153","OBJECT_ID":"2021-025C","EPOCH":"2026-01-04T05:35:37.460544","MEAN_MOTION":13.13470372,"ECCENTRICITY":0.00016256,"INCLINATION":87.8985,"RA_OF_ASC_NODE":352.8107,"ARG_OF_PERICENTER":87.8042,"MEAN_ANOMALY":272.3274,"EPHEMERIS_TYPE":0,"CLASSIFICATION_TYPE":"U","NORAD_CAT_ID":48044,"ELEMENT_SET_NO":999,"REV_AT_EPOCH":23202,"BSTAR":-0.0005754294,"MEAN_MOTION_DOT":-1.97e-6,"MEAN_MOTION_DDOT":0},{"OBJECT_NAME":"ONEWEB-0154","OBJECT_ID":"2021-025D","EPOCH":"2026-01-04T05:30:44.301888","MEAN_MOTION":13.13468884,"ECCENTRICITY":0.00016671,"INCLINATION":87.8988,"RA_OF_ASC_NODE":352.8076,"ARG_OF_PERICENTER":83.4295,"MEAN_ANOMALY":276.7024,"EPHEMERIS_TYPE":0,"CLASSIFICATION_TYPE":"U","NORAD_CAT_ID":48045,"ELEMENT_SET_NO":999,"REV_AT_EPOCH":23198,"BSTAR":-0.00074949688,"MEAN_MOTION_DOT":-2.61e-6,"MEAN_MOTION_DDOT":0},{"OBJECT_NAME":"ONEWEB-0116","OBJECT_ID":"2021-025E","EPOCH":"2026-01-03T23:08:02.064192","MEAN_MOTION":13.13468525,"ECCENTRICITY":0.000179,"INCLINATION":87.899,"RA_OF_ASC_NODE":352.846,"ARG_OF_PERICENTER":82.3623,"MEAN_ANOMALY":277.7709,"EPHEMERIS_TYPE":0,"CLASSIFICATION_TYPE":"U","NORAD_CAT_ID":48046,"ELEMENT_SET_NO":999,"REV_AT_EPOCH":23209,"BSTAR":0.00040288,"MEAN_MOTION_DOT":1.6e-6,"MEAN_MOTION_DDOT":0}]
